OBJECT_NAME,OBJECT_ID,EPOCH,MEAN_MOTION,ECCENTRICITY,INCLINATION,RA_OF_ASC_NODE,ARG_OF_PERICENTER,MEAN_ANOMALY,EPHEMERIS_TYPE,CLASSIFICATION_TYPE,NORAD_CAT_ID,ELEMENT_SET_NO,REV_AT_EPOCH,BSTAR,MEAN_MOTION_DOT,MEAN_MOTION_DDOT
ONEWEB-0115,2021-025A,2026-05-25T00:25:31.274112,13.13468939,.0001821,87.8946,324.8386,90.0184,270.1154,0,U,48042,999,25055,.64958E-3,.25E-5,0
ONEWEB-0152,2021-025B,2026-05-24T22:55:19.674048,13.13468563,.0001836,87.8942,324.8476,87.3431,272.7909,0,U,48043,999,25050,.91833E-3,.348E-5,0
ONEWEB-0153,2021-025C,2026-05-25T00:13:19.996608,13.13469352,.0001774,87.8940,324.8409,94.3661,265.7671,0,U,48044,999,25050,.15548E-3,.7E-6,0
ONEWEB-0154,2021-025D,2026-05-25T00:08:26.666880,13.13469584,.0001725,87.8941,324.8388,89.5849,270.5478,0,U,48045,999,25046,-.23877E-3,-.74E-6,0
ONEWEB-0116,2021-025E,2026-05-25T04:43:54.280128,13.13471286,.0001829,87.8951,324.7959,87.0354,273.0984,0,U,48046,999,25063,.30358E-3,.124E-5,0
ONEWEB-0150,2021-025F,2026-05-25T00:30:23.681088,13.13468455,.0001971,87.8948,324.8285,95.6219,264.5135,0,U,48047,999,25050,.66591E-3,.256E-5,0
ONEWEB-0107,2021-025G,2026-05-25T00:32:49.975296,13.13468499,.0001693,87.8950,324.8239,99.6510,260.4810,0,U,48048,999,25048,.75978E-3,.29E-5,0
ONEWEB-0101,2021-025H,2026-05-25T01:28:53.898816,13.13468866,.000163,87.8941,324.8338,92.2230,267.9086,0,U,48049,999,25046,-.8127E-3,-.284E-5,0
ONEWEB-0113,2021-025J,2026-05-25T00:25:04.243872,13.13895618,.0001838,87.8946,324.7553,91.7054,268.4286,0,U,48050,999,25056,.61386E-3,.238E-5,0
ONEWEB-0112,2021-025K,2026-05-24T22:50:27.255840,13.13468944,.0001537,87.8951,324.8360,93.2579,266.8726,0,U,48051,999,25054,.10795E-2,.407E-5,0
ONEWEB-0156,2021-025L,2026-05-25T04:31:43.383648,13.13468694,.0001813,87.8951,324.7990,96.1196,264.0140,0,U,48052,999,25055,.72761E-3,.278E-5,0
ONEWEB-0161,2021-025M,2026-05-25T00:15:46.276128,13.13469423,.0001767,87.8943,324.8364,98.5433,261.5897,0,U,48053,999,25046,.35305E-3,.142E-5,0
ONEWEB-0158,2021-025N,2026-05-25T04:46:20.438688,13.13467387,.0001783,87.8949,324.7959,80.7009,279.4322,0,U,48054,999,25061,-.96241E-4,-.22E-6,0
ONEWEB-0157,2021-025P,2026-05-24T23:53:49.625664,13.13469153,.0001598,87.8950,324.8417,103.6019,256.5288,0,U,48055,999,25052,-.50413E-3,-.171E-5,0
ONEWEB-0162,2021-025Q,2026-05-25T01:09:11.436192,13.13467888,.000193,87.8945,324.8331,94.5706,265.5644,0,U,48056,999,25050,-.21366E-3,-.65E-6,0
ONEWEB-0155,2021-025R,2026-05-25T01:19:07.971168,13.13467975,.0001617,87.8946,324.8275,93.1036,267.0278,0,U,48057,999,25064,-.64519E-3,-.223E-5,0
ONEWEB-0149,2021-025S,2026-05-25T00:01:08.533344,13.13469391,.0001984,87.8950,324.8410,95.5479,264.5877,0,U,48058,999,25044,-.41697E-3,-.14E-5,0
ONEWEB-0148,2021-025T,2026-05-25T04:36:35.794080,13.13468229,.0002198,87.8942,324.8117,103.5893,256.5481,0,U,48059,999,25059,.69525E-3,.267E-5,0
ONEWEB-0160,2021-025U,2026-05-25T01:21:35.362656,13.13468906,.0002165,87.8943,324.8345,72.8105,287.3261,0,U,48060,999,25052,-.65347E-3,-.226E-5,0
ONEWEB-0163,2021-025V,2026-05-25T04:39:02.503008,13.13468833,.0001604,87.8944,324.8005,99.7478,260.3832,0,U,48061,999,25066,.49122E-3,.192E-5,0
ONEWEB-0159,2021-025W,2026-05-25T04:26:51.369792,13.13468945,.0001617,87.8951,324.7952,97.8598,262.2715,0,U,48062,999,25058,.7378E-3,.282E-5,0
ONEWEB-0164,2021-025X,2026-05-25T00:20:38.033376,13.13468878,.00018,87.8950,324.8354,89.1438,270.9897,0,U,48063,999,25054,.5108E-3,.199E-5,0
ONEWEB-0167,2021-025Y,2026-05-25T04:40:15.775392,13.13470878,.0001117,87.8941,324.8117,93.4800,266.6457,0,U,48064,999,25055,.29801E-3,.122E-5,0
ONEWEB-0166,2021-025Z,2026-05-24T23:44:04.696800,13.13470055,.0001898,87.8951,324.8217,97.2617,262.8728,0,U,48065,999,25060,-.89829E-3,-.315E-5,0
ONEWEB-0151,2021-025AA,2026-05-24T23:46:29.674272,13.13468611,.0001668,87.8940,324.8406,89.8587,270.2733,0,U,48066,999,25054,-.70301E-3,-.244E-5,0
ONEWEB-0170,2021-025AB,2026-05-24T23:58:41.329344,13.13469074,.000166,87.8939,324.8406,76.8225,283.3089,0,U,48067,999,25050,-.51559E-3,-.176E-5,0
ONEWEB-0168,2021-025AC,2026-05-25T01:26:26.566080,13.13467973,.0001735,87.8951,324.8265,97.4431,262.6895,0,U,48068,999,25052,-.88764E-3,-.311E-5,0
ONEWEB-0173,2021-025AD,2026-05-24T23:24:33.862752,13.13468592,.0001473,87.8945,324.8463,100.4260,259.7035,0,U,48069,999,25075,-.30087E-3,-.97E-6,0
ONEWEB-0171,2021-025AE,2026-05-25T00:18:12.257568,13.13469263,.0001707,87.8940,324.8476,89.6098,270.5226,0,U,48070,999,25057,.57555E-3,.223E-5,0
ONEWEB-0172,2021-025AF,2026-05-24T23:48:56.968128,13.13470054,.0001612,87.8947,324.8401,92.6596,267.4718,0,U,48071,999,25146,-.65393E-3,-.226E-5,0
