ONEWEB-0115             
1 48042U 21025A   26145.01772308  .00000250  00000+0  64958-3 0  9995
2 48042  87.8946 324.8386 0001821  90.0184 270.1154 13.13468939250554
ONEWEB-0152             
1 48043U 21025B   26144.95508882  .00000348  00000+0  91833-3 0  9992
2 48043  87.8942 324.8476 0001836  87.3431 272.7909 13.13468563250505
ONEWEB-0153             
1 48044U 21025C   26145.00925922  .00000070  00000+0  15548-3 0  9999
2 48044  87.8940 324.8409 0001774  94.3661 265.7671 13.13469352250509
ONEWEB-0154             
1 48045U 21025D   26145.00586420 -.00000074  00000+0 -23877-3 0  9996
2 48045  87.8941 324.8388 0001725  89.5849 270.5478 13.13469584250468
ONEWEB-0116             
1 48046U 21025E   26145.19715602  .00000124  00000+0  30358-3 0  9999
2 48046  87.8951 324.7959 0001829  87.0354 273.0984 13.13471286250633
ONEWEB-0150             
1 48047U 21025F   26145.02110742  .00000256  00000+0  66591-3 0  9990
2 48047  87.8948 324.8285 0001971  95.6219 264.5135 13.13468455250509
ONEWEB-0107             
1 48048U 21025G   26145.02280064  .00000290  00000+0  75978-3 0  9993
2 48048  87.8950 324.8239 0001693  99.6510 260.4810 13.13468499250481
ONEWEB-0101             
1 48049U 21025H   26145.06173494 -.00000284  00000+0 -81270-3 0  9993
2 48049  87.8941 324.8338 0001630  92.2230 267.9086 13.13468866250464
ONEWEB-0113             
1 48050U 21025J   26145.01741023  .00000238  00000+0  61386-3 0  9992
2 48050  87.8946 324.7553 0001838  91.7054 268.4286 13.13895618250565
ONEWEB-0112             
1 48051U 21025K   26144.95170435  .00000407  00000+0  10795-2 0  9993
2 48051  87.8951 324.8360 0001537  93.2579 266.8726 13.13468944250541
ONEWEB-0156             
1 48052U 21025L   26145.18869657  .00000278  00000+0  72761-3 0  9999
2 48052  87.8951 324.7990 0001813  96.1196 264.0140 13.13468694250557
ONEWEB-0161             
1 48053U 21025M   26145.01095227  .00000142  00000+0  35305-3 0  9999
2 48053  87.8943 324.8364 0001767  98.5433 261.5897 13.13469423250465
ONEWEB-0158             
1 48054U 21025N   26145.19884767 -.00000022  00000+0 -96241-4 0  9990
2 48054  87.8949 324.7959 0001783  80.7009 279.4322 13.13467387250616
ONEWEB-0157             
1 48055U 21025P   26144.99571326 -.00000171  00000+0 -50413-3 0  9997
2 48055  87.8950 324.8417 0001598 103.6019 256.5288 13.13469153250529
ONEWEB-0162             
1 48056U 21025Q   26145.04804903 -.00000065  00000+0 -21366-3 0  9992
2 48056  87.8945 324.8331 0001930  94.5706 265.5644 13.13467888250507
ONEWEB-0155             
1 48057U 21025R   26145.05495337 -.00000223  00000+0 -64519-3 0  9994
2 48057  87.8946 324.8275 0001617  93.1036 267.0278 13.13467975250641
ONEWEB-0149             
1 48058U 21025S   26145.00079321 -.00000140  00000+0 -41697-3 0  9991
2 48058  87.8950 324.8410 0001984  95.5479 264.5877 13.13469391250441
ONEWEB-0148             
1 48059U 21025T   26145.19208095  .00000267  00000+0  69525-3 0  9992
2 48059  87.8942 324.8117 0002198 103.5893 256.5481 13.13468229250592
ONEWEB-0160             
1 48060U 21025U   26145.05665929 -.00000226  00000+0 -65347-3 0  9997
2 48060  87.8943 324.8345 0002165  72.8105 287.3261 13.13468906250529
ONEWEB-0163             
1 48061U 21025V   26145.19377897  .00000192  00000+0  49122-3 0  9990
2 48061  87.8944 324.8005 0001604  99.7478 260.3832 13.13468833250661
ONEWEB-0159             
1 48062U 21025W   26145.18531678  .00000282  00000+0  73780-3 0  9996
2 48062  87.8951 324.7952 0001617  97.8598 262.2715 13.13468945250582
ONEWEB-0164             
1 48063U 21025X   26145.01432909  .00000199  00000+0  51080-3 0  9992
2 48063  87.8950 324.8354 0001800  89.1438 270.9897 13.13468878250548
ONEWEB-0167             
1 48064U 21025Y   26145.19462703  .00000122  00000+0  29801-3 0  9999
2 48064  87.8941 324.8117 0001117  93.4800 266.6457 13.13470878250556
ONEWEB-0166             
1 48065U 21025Z   26144.98894325 -.00000315  00000+0 -89829-3 0  9997
2 48065  87.8951 324.8217 0001898  97.2617 262.8728 13.13470055250605
ONEWEB-0151             
1 48066U 21025AA  26144.99062123 -.00000244  00000+0 -70301-3 0  9998
2 48066  87.8940 324.8406 0001668  89.8587 270.2733 13.13468611250549
ONEWEB-0170             
1 48067U 21025AB  26144.99908946 -.00000176  00000+0 -51559-3 0  9999
2 48067  87.8939 324.8406 0001660  76.8225 283.3089 13.13469074250504
ONEWEB-0168             
1 48068U 21025AC  26145.06002970 -.00000311  00000+0 -88764-3 0  9990
2 48068  87.8951 324.8265 0001735  97.4431 262.6895 13.13467973250526
ONEWEB-0173             
1 48069U 21025AD  26144.97539193 -.00000097  00000+0 -30087-3 0  9998
2 48069  87.8945 324.8463 0001473 100.4260 259.7035 13.13468592250750
ONEWEB-0171             
1 48070U 21025AE  26145.01264187  .00000223  00000+0  57555-3 0  9992
2 48070  87.8940 324.8476 0001707  89.6098 270.5226 13.13469263250577
ONEWEB-0172             
1 48071U 21025AF  26144.99232602 -.00000226  00000+0 -65393-3 0  9990
2 48071  87.8947 324.8401 0001612  92.6596 267.4718 13.13470054251465
